STARLINK-36195          
1 67124U 25299Y   25364.16670139 -.01958344  00000+0 -22894-1 0  9991
2 67124  42.9991 210.1266 0001715 274.4183 151.4083 15.63978374  3612
STARLINK-36219          
1 67125U 25299Z   25364.16670139 -.01956809  00000+0 -22864-1 0  9993
2 67125  42.9992 210.1223 0001615 275.2193 152.3873 15.63989549  3619
STARLINK-36223          
1 67126U 25299AA  25364.16670139 -.01956924  00000+0 -22863-1 0  9991
2 67126  42.9992 210.1171 0001644 274.3062 155.1921 15.63991644  3613
STARLINK-36164          
1 67127U 25299AB  25364.16670139 -.01956028  00000+0 -22845-1 0  9997
2 67127  42.9992 210.1124 0001603 274.9029 156.4228 15.63999714  3616
STARLINK-35685          
1 67128U 25299AC  25364.16670139 -.01958932  00000+0 -22909-1 0  9995
2 67128  42.9992 210.1018 0001637 276.2292 159.2725 15.63971030  3617
STARLINK-36214          
1 67129U 25299AD  25364.16670139 -.01957847  00000+0 -22869-1 0  9995
2 67129  42.9991 210.1084 0001659 274.5979 158.6608 15.63998792  3614
STARLINK-36194          
1 67130U 25299AE  25364.16670139 -.01959518  00000+0 -23008-1 0  9990
2 67130  42.9988 210.0964 0001606 271.8001 166.7458 15.63872147  3614
ZIYUAN 3-04 (ZY 3-04)   
1 67131U 25300A   25361.09375736  .00002035  00000+0  94249-4 0  9996
2 67131  97.4921  75.1314 0003125 152.4137 207.7265 15.21251311  1672
CZ-4B R/B               
1 67132U 25300B   25362.20140237  .00052350  30493-5  23618-3 0  9998
2 67132  97.5543  77.1821 0165883 333.4129  25.8691 15.66474008  1896
KUIPER-00144            
1 67133U 25301A   25364.08370043  .00041285  00000+0  11758-2 0  9999
2 67133  51.8712  41.4960 0006369 133.9294 226.2218 15.35676733  3030
KUIPER-00164            
1 67134U 25301B   25364.14236461  .00038287  00000+0  10702-2 0  9998
2 67134  51.8724  41.1398 0003278 112.8515 247.2817 15.36310233  3224
KUIPER-00175            
1 67135U 25301C   25364.13804019  .00038654  00000+0  10647-2 0  9994
2 67135  51.8739  41.1067 0002474  67.2367 292.8880 15.36765058  3112
