CCSDS_OMM_VERS = 2.0
CREATION_DATE  = 
ORIGINATOR     = 

OBJECT_NAME    = STARLINK-36195
OBJECT_ID      = 2025-299Y
CENTER_NAME    = EARTH
REF_FRAME      = TEME
TIME_SYSTEM    = UTC
MEAN_ELEMENT_THEORY = SGP/SGP4

EPOCH          = 2025-12-30T04:00:03.000096
MEAN_MOTION    = 15.63978374
ECCENTRICITY   = .0001715
INCLINATION    = 42.9991
RA_OF_ASC_NODE = 210.1266
ARG_OF_PERICENTER = 274.4183
MEAN_ANOMALY   = 151.4083

EPHEMERIS_TYPE = 0
CLASSIFICATION_TYPE = U
NORAD_CAT_ID   = 67124
ELEMENT_SET_NO = 999
REV_AT_EPOCH   = 361
BSTAR          = -.22894E-1
MEAN_MOTION_DOT = -.1958344E-1
MEAN_MOTION_DDOT = 0

CCSDS_OMM_VERS = 2.0
CREATION_DATE  = 
ORIGINATOR     = 

OBJECT_NAME    = STARLINK-36219
OBJECT_ID      = 2025-299Z
CENTER_NAME    = EARTH
REF_FRAME      = TEME
TIME_SYSTEM    = UTC
MEAN_ELEMENT_THEORY = SGP/SGP4

EPOCH          = 2025-12-30T04:00:03.000096
MEAN_MOTION    = 15.63989549
ECCENTRICITY   = .0001615
INCLINATION    = 42.9992
RA_OF_ASC_NODE = 210.1223
ARG_OF_PERICENTER = 275.2193
MEAN_ANOMALY   = 152.3873

EPHEMERIS_TYPE = 0
CLASSIFICATION_TYPE = U
NORAD_CAT_ID   = 67125
ELEMENT_SET_NO = 999
REV_AT_EPOCH   = 361
BSTAR          = -.22864E-1
MEAN_MOTION_DOT = -.1956809E-1
MEAN_MOTION_DDOT = 0

CCSDS_OMM_VERS = 2.0
CREATION_DATE  = 
ORIGINATOR     = 

OBJECT_NAME    = STARLINK-36223
OBJECT_ID      = 2025-299AA
CENTER_NAME    = EARTH
REF_FRAME      = TEME
TIME_SYSTEM    = UTC
MEAN_ELEMENT_THEORY = SGP/SGP4

EPOCH          = 2025-12-30T04:00:03.000096
MEAN_MOTION    = 15.63991644
ECCENTRICITY   = .0001644
INCLINATION    = 42.9992
RA_OF_ASC_NODE = 210.1171
ARG_OF_PERICENTER = 274.3062
MEAN_ANOMALY   = 155.1921

EPHEMERIS_TYPE = 0
CLASSIFICATION_TYPE = U
NORAD_CAT_ID   = 67126
ELEMENT_SET_NO = 999
REV_AT_EPOCH   = 361
BSTAR          = -.22863E-1
MEAN_MOTION_DOT = -.1956924E-1
MEAN_MOTION_DDOT = 0

CCSDS_OMM_VERS = 2.0
CREATION_DATE  = 
ORIGINATOR     = 

OBJECT_NAME    = STARLINK-36164
OBJECT_ID      = 2025-299AB
CENTER_NAME    = EARTH
REF_FRAME      = TEME
TIME_SYSTEM    = UTC
MEAN_ELEMENT_THEORY = SGP/SGP4

EPOCH          = 2025-12-30T04:00:03.000096
MEAN_MOTION    = 15.63999714
ECCENTRICITY   = .0001603
INCLINATION    = 42.9992
RA_OF_ASC_NODE = 210.1124
ARG_OF_PERICENTER = 274.9029
MEAN_ANOMALY   = 156.4228

EPHEMERIS_TYPE = 0
CLASSIFICATION_TYPE = U
NORAD_CAT_ID   = 67127
ELEMENT_SET_NO = 999
REV_AT_EPOCH   = 361
BSTAR          = -.22845E-1
MEAN_MOTION_DOT = -.1956028E-1
MEAN_MOTION_DDOT = 0

CCSDS_OMM_VERS = 2.0
CREATION_DATE  = 
ORIGINATOR     = 

OBJECT_NAME    = STARLINK-35685
OBJECT_ID      = 2025-299AC
CENTER_NAME    = EARTH
REF_FRAME      = TEME
TIME_SYSTEM    = UTC
MEAN_ELEMENT_THEORY = SGP/SGP4

EPOCH          = 2025-12-30T04:00:03.000096
MEAN_MOTION    = 15.63971030
ECCENTRICITY   = .0001637
INCLINATION    = 42.9992
RA_OF_ASC_NODE = 210.1018
ARG_OF_PERICENTER = 276.2292
MEAN_ANOMALY   = 159.2725

EPHEMERIS_TYPE = 0
CLASSIFICATION_TYPE = U
NORAD_CAT_ID   = 67128
ELEMENT_SET_NO = 999
REV_AT_EPOCH   = 361
BSTAR          = -.22909E-1
MEAN_MOTION_DOT = -.1958932E-1
MEAN_MOTION_DDOT = 0

CCSDS_OMM_VERS = 2.0
CREATION_DATE  = 
ORIGINATOR     = 

OBJECT_NAME    = STARLINK-36214
OBJECT_ID      = 2025-299AD
CENTER_NAME    = EARTH
REF_FRAME      = TEME
TIME_SYSTEM    = UTC
MEAN_ELEMENT_THEORY = SGP/SGP4

EPOCH          = 2025-12-30T04:00:03.000096
MEAN_MOTION    = 15.63998792
ECCENTRICITY   = .0001659
INCLINATION    = 42.9991
RA_OF_ASC_NODE = 210.1084
ARG_OF_PERICENTER = 274.5979
MEAN_ANOMALY   = 158.6608

EPHEMERIS_TYPE = 0
CLASSIFICATION_TYPE = U
NORAD_CAT_ID   = 67129
ELEMENT_SET_NO = 999
REV_AT_EPOCH   = 361
BSTAR          = -.22869E-1
MEAN_MOTION_DOT = -.1957847E-1
MEAN_MOTION_DDOT = 0

CCSDS_OMM_VERS = 2.0
CREATION_DATE  = 
ORIGINATOR     = 

OBJECT_NAME    = STARLINK-36194
OBJECT_ID      = 2025-299AE
CENTER_NAME    = EARTH
REF_FRAME      = TEME
TIME_SYSTEM    = UTC
MEAN_ELEMENT_THEORY = SGP/SGP4

EPOCH          = 2025-12-30T04:00:03.000096
MEAN_MOTION    = 15.63872147
ECCENTRICITY   = .0001606
INCLINATION    = 42.9988
RA_OF_ASC_NODE = 210.0964
ARG_OF_PERICENTER = 271.8001
MEAN_ANOMALY   = 166.7458

EPHEMERIS_TYPE = 0
CLASSIFICATION_TYPE = U
NORAD_CAT_ID   = 67130
ELEMENT_SET_NO = 999
REV_AT_EPOCH   = 361
BSTAR          = -.23008E-1
MEAN_MOTION_DOT = -.1959518E-1
MEAN_MOTION_DDOT = 0

CCSDS_OMM_VERS = 2.0
CREATION_DATE  = 
ORIGINATOR     = 

OBJECT_NAME    = ZIYUAN 3-04 (ZY 3-04)
OBJECT_ID      = 2025-300A
CENTER_NAME    = EARTH
REF_FRAME      = TEME
TIME_SYSTEM    = UTC
MEAN_ELEMENT_THEORY = SGP/SGP4

EPOCH          = 2025-12-27T02:15:00.635904
MEAN_MOTION    = 15.21251311
ECCENTRICITY   = .00031253
INCLINATION    = 97.4921
RA_OF_ASC_NODE = 75.1314
ARG_OF_PERICENTER = 152.4137
MEAN_ANOMALY   = 207.7265

EPHEMERIS_TYPE = 0
CLASSIFICATION_TYPE = U
NORAD_CAT_ID   = 67131
ELEMENT_SET_NO = 999
REV_AT_EPOCH   = 167
BSTAR          = .94249032E-4
MEAN_MOTION_DOT = .2035E-4
MEAN_MOTION_DDOT = 0

CCSDS_OMM_VERS = 2.0
CREATION_DATE  = 
ORIGINATOR     = 

OBJECT_NAME    = CZ-4B R/B
OBJECT_ID      = 2025-300B
CENTER_NAME    = EARTH
REF_FRAME      = TEME
TIME_SYSTEM    = UTC
MEAN_ELEMENT_THEORY = SGP/SGP4

EPOCH          = 2025-12-28T04:50:01.164768
MEAN_MOTION    = 15.66474008
ECCENTRICITY   = .01658831
INCLINATION    = 97.5543
RA_OF_ASC_NODE = 77.1821
ARG_OF_PERICENTER = 333.4129
MEAN_ANOMALY   = 25.8691

EPHEMERIS_TYPE = 0
CLASSIFICATION_TYPE = U
NORAD_CAT_ID   = 67132
ELEMENT_SET_NO = 999
REV_AT_EPOCH   = 189
BSTAR          = .23618416E-3
MEAN_MOTION_DOT = .5235E-3
MEAN_MOTION_DDOT = .3049283E-5

CCSDS_OMM_VERS = 2.0
CREATION_DATE  = 
ORIGINATOR     = 

OBJECT_NAME    = KUIPER-00144
OBJECT_ID      = 2025-301A
CENTER_NAME    = EARTH
REF_FRAME      = TEME
TIME_SYSTEM    = UTC
MEAN_ELEMENT_THEORY = SGP/SGP4

EPOCH          = 2025-12-30T02:00:31.717152
MEAN_MOTION    = 15.35676733
ECCENTRICITY   = .0006369
INCLINATION    = 51.8712
RA_OF_ASC_NODE = 41.4960
ARG_OF_PERICENTER = 133.9294
MEAN_ANOMALY   = 226.2218

EPHEMERIS_TYPE = 0
CLASSIFICATION_TYPE = U
NORAD_CAT_ID   = 67133
ELEMENT_SET_NO = 999
REV_AT_EPOCH   = 303
BSTAR          = .11758E-2
MEAN_MOTION_DOT = .41285E-3
MEAN_MOTION_DDOT = 0

CCSDS_OMM_VERS = 2.0
CREATION_DATE  = 
ORIGINATOR     = 

OBJECT_NAME    = KUIPER-00164
OBJECT_ID      = 2025-301B
CENTER_NAME    = EARTH
REF_FRAME      = TEME
TIME_SYSTEM    = UTC
MEAN_ELEMENT_THEORY = SGP/SGP4

EPOCH          = 2025-12-30T03:25:00.302304
MEAN_MOTION    = 15.36310233
ECCENTRICITY   = .0003278
INCLINATION    = 51.8724
RA_OF_ASC_NODE = 41.1398
ARG_OF_PERICENTER = 112.8515
MEAN_ANOMALY   = 247.2817

EPHEMERIS_TYPE = 0
CLASSIFICATION_TYPE = U
NORAD_CAT_ID   = 67134
ELEMENT_SET_NO = 999
REV_AT_EPOCH   = 322
BSTAR          = .10702E-2
MEAN_MOTION_DOT = .38287E-3
MEAN_MOTION_DDOT = 0

CCSDS_OMM_VERS = 2.0
CREATION_DATE  = 
ORIGINATOR     = 

OBJECT_NAME    = KUIPER-00175
OBJECT_ID      = 2025-301C
CENTER_NAME    = EARTH
REF_FRAME      = TEME
TIME_SYSTEM    = UTC
MEAN_ELEMENT_THEORY = SGP/SGP4

EPOCH          = 2025-12-30T03:18:46.672416
MEAN_MOTION    = 15.36765058
ECCENTRICITY   = .0002474
INCLINATION    = 51.8739
RA_OF_ASC_NODE = 41.1067
ARG_OF_PERICENTER = 67.2367
MEAN_ANOMALY   = 292.8880

EPHEMERIS_TYPE = 0
CLASSIFICATION_TYPE = U
NORAD_CAT_ID   = 67135
ELEMENT_SET_NO = 999
REV_AT_EPOCH   = 311
BSTAR          = .10647E-2
MEAN_MOTION_DOT = .38654E-3
MEAN_MOTION_DDOT = 0

